STARLINK-35283          
1 66478U 25262Y   25339.91670139 -.00066165  00000+0 -11305-2 0  9993
2 66478  43.0002 110.9206 0001675 282.9460 137.6712 15.50603462  4543
STARLINK-35581          
1 66479U 25262Z   25339.91670139 -.00191737  00000+0 -33310-2 0  9998
2 66479  43.0000 110.9302 0001264 282.1567 134.6007 15.50680404  4548
STARLINK-35670          
1 66480U 25262AA  25339.91670139 -.00076030  00000+0 -13014-2 0  9997
2 66480  43.0002 110.9152 0001638 280.5561 141.9774 15.50608432  4549
STARLINK-35698          
1 66481U 25262AB  25339.91670139 -.00103468  00000+0 -17779-2 0  9996
2 66481  43.0003 110.9103 0001397 290.2984 134.1346 15.50630817  4547
STARLINK-35648          
1 66482U 25262AC  25339.91670139 -.00056208  00000+0 -95845-3 0  9997
2 66482  43.0004 110.9054 0001427 285.0060 141.3572 15.50599750  4388
STARLINK-35654          
1 66483U 25262AD  25339.91670139 -.00108732  00000+0 -18695-2 0  9995
2 66483  43.0005 110.9002 0001278 292.7975 135.4604 15.50637505  4546
STARLINK-35371          
1 66484U 25262AE  25339.91670139 -.00088040  00000+0 -15098-2 0  9999
2 66484  43.0002 110.8960 0001527 278.6063 151.5925 15.50616019  4546
STARLINK-34774          
1 66485U 25263A   25339.91670139 -.01979707  00000+0 -26178-1 0  9991
2 66485  42.9996 165.1827 0001456 267.9330 358.3654 15.60900425  4534
STARLINK-34844          
1 66486U 25263B   25339.91670139 -.01979194  00000+0 -26169-1 0  9992
2 66486  42.9994 165.1769 0001603 267.6727   0.5428 15.60899654  4490
STARLINK-34733          
1 66487U 25263C   25339.91670139 -.01980206  00000+0 -26183-1 0  9995
2 66487  42.9993 165.1729 0001576 267.6572   2.4736 15.60901402  4536
STARLINK-35515          
1 66488U 25263D   25339.91670139 -.01979818  00000+0 -26178-1 0  9997
2 66488  42.9994 165.1677 0001575 268.4269   3.6208 15.60901190  4532
STARLINK-35696          
1 66489U 25263E   25339.91670139 -.01978502  00000+0 -26160-1 0  9998
2 66489  42.9994 165.1626 0001602 268.8321   5.1349 15.60899028  4530
