CCSDS_OMM_VERS = 2.0
CREATION_DATE  = 
ORIGINATOR     = 

OBJECT_NAME    = STARLINK-35283
OBJECT_ID      = 2025-262Y
CENTER_NAME    = EARTH
REF_FRAME      = TEME
TIME_SYSTEM    = UTC
MEAN_ELEMENT_THEORY = SGP/SGP4

EPOCH          = 2025-12-05T22:00:03.000096
MEAN_MOTION    = 15.50603462
ECCENTRICITY   = .00016751
INCLINATION    = 43.0002
RA_OF_ASC_NODE = 110.9206
ARG_OF_PERICENTER = 282.9460
MEAN_ANOMALY   = 137.6712

EPHEMERIS_TYPE = 0
CLASSIFICATION_TYPE = U
NORAD_CAT_ID   = 66478
ELEMENT_SET_NO = 999
REV_AT_EPOCH   = 454
BSTAR          = -.11305309E-2
MEAN_MOTION_DOT = -.66165E-3
MEAN_MOTION_DDOT = 0

CCSDS_OMM_VERS = 2.0
CREATION_DATE  = 
ORIGINATOR     = 

OBJECT_NAME    = STARLINK-35581
OBJECT_ID      = 2025-262Z
CENTER_NAME    = EARTH
REF_FRAME      = TEME
TIME_SYSTEM    = UTC
MEAN_ELEMENT_THEORY = SGP/SGP4

EPOCH          = 2025-12-05T22:00:03.000096
MEAN_MOTION    = 15.50680404
ECCENTRICITY   = .00012647
INCLINATION    = 43.0000
RA_OF_ASC_NODE = 110.9302
ARG_OF_PERICENTER = 282.1567
MEAN_ANOMALY   = 134.6007

EPHEMERIS_TYPE = 0
CLASSIFICATION_TYPE = U
NORAD_CAT_ID   = 66479
ELEMENT_SET_NO = 999
REV_AT_EPOCH   = 454
BSTAR          = -.33310125E-2
MEAN_MOTION_DOT = -.191737E-2
MEAN_MOTION_DDOT = 0

CCSDS_OMM_VERS = 2.0
CREATION_DATE  = 
ORIGINATOR     = 

OBJECT_NAME    = STARLINK-35670
OBJECT_ID      = 2025-262AA
CENTER_NAME    = EARTH
REF_FRAME      = TEME
TIME_SYSTEM    = UTC
MEAN_ELEMENT_THEORY = SGP/SGP4

EPOCH          = 2025-12-05T22:00:03.000096
MEAN_MOTION    = 15.50608432
ECCENTRICITY   = .00016388
INCLINATION    = 43.0002
RA_OF_ASC_NODE = 110.9152
ARG_OF_PERICENTER = 280.5561
MEAN_ANOMALY   = 141.9774

EPHEMERIS_TYPE = 0
CLASSIFICATION_TYPE = U
NORAD_CAT_ID   = 66480
ELEMENT_SET_NO = 999
REV_AT_EPOCH   = 454
BSTAR          = -.13013712E-2
MEAN_MOTION_DOT = -.7603E-3
MEAN_MOTION_DDOT = 0

CCSDS_OMM_VERS = 2.0
CREATION_DATE  = 
ORIGINATOR     = 

OBJECT_NAME    = STARLINK-35698
OBJECT_ID      = 2025-262AB
CENTER_NAME    = EARTH
REF_FRAME      = TEME
TIME_SYSTEM    = UTC
MEAN_ELEMENT_THEORY = SGP/SGP4

EPOCH          = 2025-12-05T22:00:03.000096
MEAN_MOTION    = 15.50630817
ECCENTRICITY   = .00013973
INCLINATION    = 43.0003
RA_OF_ASC_NODE = 110.9103
ARG_OF_PERICENTER = 290.2984
MEAN_ANOMALY   = 134.1346

EPHEMERIS_TYPE = 0
CLASSIFICATION_TYPE = U
NORAD_CAT_ID   = 66481
ELEMENT_SET_NO = 999
REV_AT_EPOCH   = 454
BSTAR          = -.17779351E-2
MEAN_MOTION_DOT = -.103468E-2
MEAN_MOTION_DDOT = 0

CCSDS_OMM_VERS = 2.0
CREATION_DATE  = 
ORIGINATOR     = 

OBJECT_NAME    = STARLINK-35648
OBJECT_ID      = 2025-262AC
CENTER_NAME    = EARTH
REF_FRAME      = TEME
TIME_SYSTEM    = UTC
MEAN_ELEMENT_THEORY = SGP/SGP4

EPOCH          = 2025-12-05T22:00:03.000096
MEAN_MOTION    = 15.50599750
ECCENTRICITY   = .00014274
INCLINATION    = 43.0004
RA_OF_ASC_NODE = 110.9054
ARG_OF_PERICENTER = 285.0060
MEAN_ANOMALY   = 141.3572

EPHEMERIS_TYPE = 0
CLASSIFICATION_TYPE = U
NORAD_CAT_ID   = 66482
ELEMENT_SET_NO = 999
REV_AT_EPOCH   = 438
BSTAR          = -.95844876E-3
MEAN_MOTION_DOT = -.56208E-3
MEAN_MOTION_DDOT = 0

CCSDS_OMM_VERS = 2.0
CREATION_DATE  = 
ORIGINATOR     = 

OBJECT_NAME    = STARLINK-35654
OBJECT_ID      = 2025-262AD
CENTER_NAME    = EARTH
REF_FRAME      = TEME
TIME_SYSTEM    = UTC
MEAN_ELEMENT_THEORY = SGP/SGP4

EPOCH          = 2025-12-05T22:00:03.000096
MEAN_MOTION    = 15.50637505
ECCENTRICITY   = .00012786
INCLINATION    = 43.0005
RA_OF_ASC_NODE = 110.9002
ARG_OF_PERICENTER = 292.7975
MEAN_ANOMALY   = 135.4604

EPHEMERIS_TYPE = 0
CLASSIFICATION_TYPE = U
NORAD_CAT_ID   = 66483
ELEMENT_SET_NO = 999
REV_AT_EPOCH   = 454
BSTAR          = -.18695201E-2
MEAN_MOTION_DOT = -.108732E-2
MEAN_MOTION_DDOT = 0

CCSDS_OMM_VERS = 2.0
CREATION_DATE  = 
ORIGINATOR     = 

OBJECT_NAME    = STARLINK-35371
OBJECT_ID      = 2025-262AE
CENTER_NAME    = EARTH
REF_FRAME      = TEME
TIME_SYSTEM    = UTC
MEAN_ELEMENT_THEORY = SGP/SGP4

EPOCH          = 2025-12-05T22:00:03.000096
MEAN_MOTION    = 15.50616019
ECCENTRICITY   = .00015275
INCLINATION    = 43.0002
RA_OF_ASC_NODE = 110.8960
ARG_OF_PERICENTER = 278.6063
MEAN_ANOMALY   = 151.5925

EPHEMERIS_TYPE = 0
CLASSIFICATION_TYPE = U
NORAD_CAT_ID   = 66484
ELEMENT_SET_NO = 999
REV_AT_EPOCH   = 454
BSTAR          = -.15097648E-2
MEAN_MOTION_DOT = -.8804E-3
MEAN_MOTION_DDOT = 0

CCSDS_OMM_VERS = 2.0
CREATION_DATE  = 
ORIGINATOR     = 

OBJECT_NAME    = STARLINK-34774
OBJECT_ID      = 2025-263A
CENTER_NAME    = EARTH
REF_FRAME      = TEME
TIME_SYSTEM    = UTC
MEAN_ELEMENT_THEORY = SGP/SGP4

EPOCH          = 2025-12-05T22:00:03.000096
MEAN_MOTION    = 15.60900425
ECCENTRICITY   = .00014568
INCLINATION    = 42.9996
RA_OF_ASC_NODE = 165.1827
ARG_OF_PERICENTER = 267.9330
MEAN_ANOMALY   = 358.3654

EPHEMERIS_TYPE = 0
CLASSIFICATION_TYPE = U
NORAD_CAT_ID   = 66485
ELEMENT_SET_NO = 999
REV_AT_EPOCH   = 453
BSTAR          = -.26177975E-1
MEAN_MOTION_DOT = -.1979707E-1
MEAN_MOTION_DDOT = 0

CCSDS_OMM_VERS = 2.0
CREATION_DATE  = 
ORIGINATOR     = 

OBJECT_NAME    = STARLINK-34844
OBJECT_ID      = 2025-263B
CENTER_NAME    = EARTH
REF_FRAME      = TEME
TIME_SYSTEM    = UTC
MEAN_ELEMENT_THEORY = SGP/SGP4

EPOCH          = 2025-12-05T22:00:03.000096
MEAN_MOTION    = 15.60899654
ECCENTRICITY   = .00016036
INCLINATION    = 42.9994
RA_OF_ASC_NODE = 165.1769
ARG_OF_PERICENTER = 267.6727
MEAN_ANOMALY   = 0.5428

EPHEMERIS_TYPE = 0
CLASSIFICATION_TYPE = U
NORAD_CAT_ID   = 66486
ELEMENT_SET_NO = 999
REV_AT_EPOCH   = 449
BSTAR          = -.26169395E-1
MEAN_MOTION_DOT = -.1979194E-1
MEAN_MOTION_DDOT = 0

CCSDS_OMM_VERS = 2.0
CREATION_DATE  = 
ORIGINATOR     = 

OBJECT_NAME    = STARLINK-34733
OBJECT_ID      = 2025-263C
CENTER_NAME    = EARTH
REF_FRAME      = TEME
TIME_SYSTEM    = UTC
MEAN_ELEMENT_THEORY = SGP/SGP4

EPOCH          = 2025-12-05T22:00:03.000096
MEAN_MOTION    = 15.60901402
ECCENTRICITY   = .00015762
INCLINATION    = 42.9993
RA_OF_ASC_NODE = 165.1729
ARG_OF_PERICENTER = 267.6572
MEAN_ANOMALY   = 2.4736

EPHEMERIS_TYPE = 0
CLASSIFICATION_TYPE = U
NORAD_CAT_ID   = 66487
ELEMENT_SET_NO = 999
REV_AT_EPOCH   = 453
BSTAR          = -.2618316E-1
MEAN_MOTION_DOT = -.1980206E-1
MEAN_MOTION_DDOT = 0

CCSDS_OMM_VERS = 2.0
CREATION_DATE  = 
ORIGINATOR     = 

OBJECT_NAME    = STARLINK-35515
OBJECT_ID      = 2025-263D
CENTER_NAME    = EARTH
REF_FRAME      = TEME
TIME_SYSTEM    = UTC
MEAN_ELEMENT_THEORY = SGP/SGP4

EPOCH          = 2025-12-05T22:00:03.000096
MEAN_MOTION    = 15.60901190
ECCENTRICITY   = .00015759
INCLINATION    = 42.9994
RA_OF_ASC_NODE = 165.1677
ARG_OF_PERICENTER = 268.4269
MEAN_ANOMALY   = 3.6208

EPHEMERIS_TYPE = 0
CLASSIFICATION_TYPE = U
NORAD_CAT_ID   = 66488
ELEMENT_SET_NO = 999
REV_AT_EPOCH   = 453
BSTAR          = -.26177546E-1
MEAN_MOTION_DOT = -.1979818E-1
MEAN_MOTION_DDOT = 0

CCSDS_OMM_VERS = 2.0
CREATION_DATE  = 
ORIGINATOR     = 

OBJECT_NAME    = STARLINK-35696
OBJECT_ID      = 2025-263E
CENTER_NAME    = EARTH
REF_FRAME      = TEME
TIME_SYSTEM    = UTC
MEAN_ELEMENT_THEORY = SGP/SGP4

EPOCH          = 2025-12-05T22:00:03.000096
MEAN_MOTION    = 15.60899028
ECCENTRICITY   = .00016027
INCLINATION    = 42.9994
RA_OF_ASC_NODE = 165.1626
ARG_OF_PERICENTER = 268.8321
MEAN_ANOMALY   = 5.1349

EPHEMERIS_TYPE = 0
CLASSIFICATION_TYPE = U
NORAD_CAT_ID   = 66489
ELEMENT_SET_NO = 999
REV_AT_EPOCH   = 453
BSTAR          = -.26159624E-1
MEAN_MOTION_DOT = -.1978502E-1
MEAN_MOTION_DDOT = 0

